{
  "type": "FeatureCollection",
  "features": [
    {
      "type": "Feature",
      "properties": {
        "norad_id": 31212,
        "name": "FENGYUN 1C DEB",
        "group": "fengyun-1c-debris",
        "lat": -9.564196086291684,
        "lon": 32.69791355104648,
        "alt_km": 897.7264419546718,
        "timestamp": "2025-12-25T07:00:34.328492+00:00",
        "meta_object_name": "FENGYUN 1C DEB",
        "meta_object_id": "1999-025BKS",
        "meta_epoch": "2025-12-14T12:45:56.653344",
        "meta_mean_motion": 14.13124373,
        "meta_eccentricity": 0.00752745,
        "meta_inclination": 99.2196,
        "meta_ra_of_asc_node": 20.0508,
        "meta_arg_of_pericenter": 167.0098,
        "meta_mean_anomaly": 193.3035,
        "meta_ephemeris_type": 0,
        "meta_classification_type": "U",
        "meta_norad_cat_id": 31212,
        "meta_element_set_no": 999,
        "meta_rev_at_epoch": 95684,
        "meta_bstar": 0.0014706798,
        "meta_mean_motion_dot": 2.778e-05,
        "meta_mean_motion_ddot": 0,
        "tle_line1": "1 31212U 99025BKS 25348.53190571  .00002778  00000+0  14707-2 0  9991",
        "tle_line2": "2 31212  99.2196  20.0508 0075274 167.0098 193.3035 14.13124373956843"
      },
      "geometry": {
        "type": "Point",
        "coordinates": [
          32.69791355104648,
          -9.564196086291684
        ]
      }
    },
    {
      "type": "Feature",
      "properties": {
        "norad_id": 31215,
        "name": "FENGYUN 1C DEB",
        "group": "fengyun-1c-debris",
        "lat": -4.343133894816733,
        "lon": 23.26403823230548,
        "alt_km": 793.7126469319337,
        "timestamp": "2025-12-25T07:00:34.328514+00:00",
        "meta_object_name": "FENGYUN 1C DEB",
        "meta_object_id": "1999-025BKV",
        "meta_epoch": "2025-12-23T18:58:32.340576",
        "meta_mean_motion": 14.33841717,
        "meta_eccentricity": 0.00697478,
        "meta_inclination": 99.0705,
        "meta_ra_of_asc_node": 202.3857,
        "meta_arg_of_pericenter": 292.183,
        "meta_mean_anomaly": 67.1963,
        "meta_ephemeris_type": 0,
        "meta_classification_type": "U",
        "meta_norad_cat_id": 31215,
        "meta_element_set_no": 999,
        "meta_rev_at_epoch": 96684,
        "meta_bstar": 0.00091518224,
        "meta_mean_motion_dot": 2.569e-05,
        "meta_mean_motion_ddot": 0,
        "tle_line1": "1 31215U 99025BKV 25357.79065209  .00002569  00000+0  91518-3 0  9995",
        "tle_line2": "2 31215  99.0705 202.3857 0069747 292.1830  67.1963 14.33841717966843"
      },
      "geometry": {
        "type": "Point",
        "coordinates": [
          23.26403823230548,
          -4.343133894816733
        ]
      }
    },
    {
      "type": "Feature",
      "properties": {
        "norad_id": 31217,
        "name": "FENGYUN 1C DEB",
        "group": "fengyun-1c-debris",
        "lat": -35.44947968850993,
        "lon": 13.049384721172295,
        "alt_km": 907.5450945869652,
        "timestamp": "2025-12-25T07:00:34.328536+00:00",
        "meta_object_name": "FENGYUN 1C DEB",
        "meta_object_id": "1999-025BKX",
        "meta_epoch": "2025-12-23T11:08:13.117344",
        "meta_mean_motion": 14.17561975,
        "meta_eccentricity": 0.01000754,
        "meta_inclination": 98.6404,
        "meta_ra_of_asc_node": 5.0567,
        "meta_arg_of_pericenter": 129.376,
        "meta_mean_anomaly": 231.6333,
        "meta_ephemeris_type": 0,
        "meta_classification_type": "U",
        "meta_norad_cat_id": 31217,
        "meta_element_set_no": 999,
        "meta_rev_at_epoch": 96500,
        "meta_bstar": 0.00050455664,
        "meta_mean_motion_dot": 1.035e-05,
        "meta_mean_motion_ddot": 0,
        "tle_line1": "1 31217U 99025BKX 25357.46404071  .00001035  00000+0  50456-3 0  9998",
        "tle_line2": "2 31217  98.6404   5.0567 0100075 129.3760 231.6333 14.17561975965008"
      },
      "geometry": {
        "type": "Point",
        "coordinates": [
          13.049384721172295,
          -35.44947968850993
        ]
      }
    },
    {
      "type": "Feature",
      "properties": {
        "norad_id": 31218,
        "name": "FENGYUN 1C DEB",
        "group": "fengyun-1c-debris",
        "lat": -14.017332502239867,
        "lon": -71.65852445516168,
        "alt_km": 663.2854509809849,
        "timestamp": "2025-12-25T07:00:34.328557+00:00",
        "meta_object_name": "FENGYUN 1C DEB",
        "meta_object_id": "1999-025BKY",
        "meta_epoch": "2025-12-22T12:55:13.212768",
        "meta_mean_motion": 14.7294005,
        "meta_eccentricity": 0.00117858,
        "meta_inclination": 98.8396,
        "meta_ra_of_asc_node": 107.5728,
        "meta_arg_of_pericenter": 357.51,
        "meta_mean_anomaly": 2.6044,
        "meta_ephemeris_type": 0,
        "meta_classification_type": "U",
        "meta_norad_cat_id": 31218,
        "meta_element_set_no": 999,
        "meta_rev_at_epoch": 97227,
        "meta_bstar": 0.0045886009,
        "meta_mean_motion_dot": 0.00029528,
        "meta_mean_motion_ddot": 0,
        "tle_line1": "1 31218U 99025BKY 25356.53834737  .00029528  00000+0  45886-2 0  9999",
        "tle_line2": "2 31218  98.8396 107.5728 0011785 357.5100   2.6044 14.72940050972278"
      },
      "geometry": {
        "type": "Point",
        "coordinates": [
          -71.65852445516168,
          -14.017332502239867
        ]
      }
    },
    {
      "type": "Feature",
      "properties": {
        "norad_id": 31219,
        "name": "FENGYUN 1C DEB",
        "group": "fengyun-1c-debris",
        "lat": -79.45820235587037,
        "lon": 71.13813984033897,
        "alt_km": 892.3307830721697,
        "timestamp": "2025-12-25T07:00:34.328586+00:00",
        "meta_object_name": "FENGYUN 1C DEB",
        "meta_object_id": "1999-025BKZ",
        "meta_epoch": "2025-12-21T11:42:00.500256",
        "meta_mean_motion": 14.13828001,
        "meta_eccentricity": 0.00793404,
        "meta_inclination": 99.2832,
        "meta_ra_of_asc_node": 5.679,
        "meta_arg_of_pericenter": 152.7688,
        "meta_mean_anomaly": 207.7678,
        "meta_ephemeris_type": 0,
        "meta_classification_type": "U",
        "meta_norad_cat_id": 31219,
        "meta_element_set_no": 999,
        "meta_rev_at_epoch": 95693,
        "meta_bstar": 0.0010390741,
        "meta_mean_motion_dot": 1.981e-05,
        "meta_mean_motion_ddot": 0,
        "tle_line1": "1 31219U 99025BKZ 25355.48750579  .00001981  00000+0  10391-2 0  9990",
        "tle_line2": "2 31219  99.2832   5.6790 0079340 152.7688 207.7678 14.13828001956935"
      },
      "geometry": {
        "type": "Point",
        "coordinates": [
          71.13813984033897,
          -79.45820235587037
        ]
      }
    },
    {
      "type": "Feature",
      "properties": {
        "norad_id": 31222,
        "name": "FENGYUN 1C DEB",
        "group": "fengyun-1c-debris",
        "lat": -64.53861106291951,
        "lon": 89.11343632042359,
        "alt_km": 587.4883540290875,
        "timestamp": "2025-12-25T07:00:34.328610+00:00",
        "meta_object_name": "FENGYUN 1C DEB",
        "meta_object_id": "1999-025BLC",
        "meta_epoch": "2025-12-24T15:16:06.335616",
        "meta_mean_motion": 14.98020534,
        "meta_eccentricity": 0.01696928,
        "meta_inclination": 98.611,
        "meta_ra_of_asc_node": 69.8328,
        "meta_arg_of_pericenter": 30.7744,
        "meta_mean_anomaly": 330.3293,
        "meta_ephemeris_type": 0,
        "meta_classification_type": "U",
        "meta_norad_cat_id": 31222,
        "meta_element_set_no": 999,
        "meta_rev_at_epoch": 161,
        "meta_bstar": 0.00057144817,
        "meta_mean_motion_dot": 9.024e-05,
        "meta_mean_motion_ddot": 0,
        "tle_line1": "1 31222U 99025BLC 25358.63618444  .00009024  00000+0  57145-3 0  9993",
        "tle_line2": "2 31222  98.6110  69.8328 0169692  30.7744 330.3293 14.98020534  1618"
      },
      "geometry": {
        "type": "Point",
        "coordinates": [
          89.11343632042359,
          -64.53861106291951
        ]
      }
    },
    {
      "type": "Feature",
      "properties": {
        "norad_id": 31223,
        "name": "FENGYUN 1C DEB",
        "group": "fengyun-1c-debris",
        "lat": 0.706262584047649,
        "lon": -115.14947524375751,
        "alt_km": 797.5335298931786,
        "timestamp": "2025-12-25T07:00:34.328633+00:00",
        "meta_object_name": "FENGYUN 1C DEB",
        "meta_object_id": "1999-025BLD",
        "meta_epoch": "2025-12-24T22:17:21.274080",
        "meta_mean_motion": 13.77323997,
        "meta_eccentricity": 0.02446773,
        "meta_inclination": 99.0057,
        "meta_ra_of_asc_node": 244.6179,
        "meta_arg_of_pericenter": 8.8602,
        "meta_mean_anomaly": 351.6753,
        "meta_ephemeris_type": 0,
        "meta_classification_type": "U",
        "meta_norad_cat_id": 31223,
        "meta_element_set_no": 999,
        "meta_rev_at_epoch": 92896,
        "meta_bstar": 0.0029918885,
        "meta_mean_motion_dot": 3.664e-05,
        "meta_mean_motion_ddot": 0,
        "tle_line1": "1 31223U 99025BLD 25358.92871845  .00003664  00000+0  29919-2 0  9993",
        "tle_line2": "2 31223  99.0057 244.6179 0244677   8.8602 351.6753 13.77323997928965"
      },
      "geometry": {
        "type": "Point",
        "coordinates": [
          -115.14947524375751,
          0.706262584047649
        ]
      }
    }
  ]
}